OBJECT_NAME,OBJECT_ID,EPOCH,MEAN_MOTION,ECCENTRICITY,INCLINATION,RA_OF_ASC_NODE,ARG_OF_PERICENTER,MEAN_ANOMALY,EPHEMERIS_TYPE,CLASSIFICATION_TYPE,NORAD_CAT_ID,ELEMENT_SET_NO,REV_AT_EPOCH,BSTAR,MEAN_MOTION_DOT,MEAN_MOTION_DDOT
TANAGER-1,2024-149AR,2026-06-18T18:41:35.517120,15.44815637,.0003199,97.2542,264.0287,300.0531,60.0400,0,U,60507,999,10328,.71918609E-4,.3281E-4,0
EAGLEEYE,2024-149AS,2026-06-19T05:00:06.103872,15.71245040,.00045048,97.3718,263.6576,230.8752,129.2110,0,U,60508,999,10325,.72051286E-3,.91794E-3,0
FLOCK 4BE-29,2024-149AT,2026-06-19T04:31:57.168768,15.44198222,.00013868,97.3810,256.0919,277.9500,82.1591,0,U,60509,999,10272,.31237061E-3,.14252E-3,0
TRANSPORTER-11 OBJECT AU,2024-149AU,2026-06-19T04:50:40.870752,15.40268795,.00022509,97.3729,253.9385,277.2370,82.8620,0,U,60510,999,10262,.29639366E-3,.11851E-3,0
FLOCK 4BE-2,2024-149AV,2026-06-19T06:00:19.595520,15.52903535,.0003581,97.3831,257.6040,245.7067,114.3812,0,U,60511,999,10282,.81957242E-3,.51089E-3,0
FLOCK 4BE-13,2024-149AW,2026-06-19T05:35:00.049344,15.41933646,.00030458,97.3718,254.6652,249.7621,110.3299,0,U,60512,999,10268,.28827843E-3,.1218E-3,0
FLOCK 4BE-27,2024-149AX,2026-06-19T05:11:04.934976,15.34475244,.00024009,97.3821,252.0681,305.1012,55.0005,0,U,60513,999,10245,.23034476E-3,.7612E-4,0
FLOCK 4BE-9,2024-149AY,2026-06-19T05:35:50.310816,15.40847332,.00014011,97.3791,254.5247,278.5308,81.5780,0,U,60514,999,10263,.32745494E-3,.13356E-3,0
FLOCK 4BE-6,2024-149BA,2026-06-19T04:46:00.784416,15.39624229,.00020883,97.3788,253.8446,280.7453,79.3558,0,U,60516,999,10258,.33418178E-3,.13093E-3,0
FLOCK 4BE-14,2024-149BB,2026-06-19T04:19:55.864416,15.41043574,.00030561,97.3694,253.9640,280.1184,79.9718,0,U,60517,999,10263,.333657E-3,.13702E-3,0
FLOCK 4BE-1,2024-149BC,2026-06-19T04:39:52.119936,15.42656347,.00028775,97.3782,255.2628,279.0068,81.0854,0,U,60518,999,10268,.34707274E-3,.15046E-3,0
FLOCK 4BE-28,2024-149BD,2026-06-19T04:56:00.974112,15.44970196,.00029933,97.3747,256.0043,271.4829,88.6077,0,U,60519,999,10275,.33129431E-3,.15526E-3,0
IPERDRONE.0,2024-149BE,2026-06-19T05:20:23.752032,15.66905166,.00037965,97.3772,263.5348,218.9658,141.1330,0,U,60520,999,10323,.66455214E-3,.70674E-3,0
TRANSPORTER-11 OBJECT BF,2024-149BF,2026-06-19T05:05:50.374176,15.85616494,.00063236,97.3762,266.3104,231.6835,128.3867,0,U,60521,999,10340,.9988554E-3,.246407E-2,0
CONNECTA IOT-2,2024-149BG,2026-06-19T05:10:21.427392,15.23989268,.00053634,97.3836,248.3305,329.2758,30.8165,0,U,60522,999,10220,.15598641E-3,.3707E-4,0
CONNECTA IOT-4,2024-149BJ,2026-06-19T05:15:01.746144,15.42203034,.00040625,97.3795,254.6131,274.8392,85.2391,0,U,60524,999,10264,.39029697E-3,.16681E-3,0
ORESAT0.5,2024-149BK,2026-06-19T04:34:29.047008,15.45142527,.0004161,97.3717,256.2216,263.4157,96.6618,0,U,60525,999,10278,.35084963E-3,.1655E-3,0
DEIMOS,2024-149BL,2026-06-19T05:22:28.120512,15.44283468,.00040721,97.3780,256.3949,271.4459,88.6323,0,U,60526,999,10276,.34350937E-3,.15733E-3,0
CUAVA-2,2024-149BM,2026-06-18T23:20:01.028832,15.36150155,.00052016,97.3723,251.4944,286.2634,73.8038,0,U,60527,999,10244,.27712269E-3,.9685E-4,0
ERNST,2024-149BN,2026-06-19T04:26:32.126784,15.39252469,.00043933,97.3808,253.9198,288.3563,71.7205,0,U,60528,999,10258,.29852433E-3,.11546E-3,0
TORO,2024-149BQ,2026-06-19T02:41:21.243552,14.96431619,.00013864,97.6790,244.7440,80.2197,279.9181,0,U,60530,999,10024,.9986472E-4,.1075E-4,0
HYPSO-2,2024-149BR,2026-06-19T04:53:08.247552,14.98795441,.00002208,97.6806,246.4351,60.2275,299.8970,0,U,60531,999,10035,.15856712E-3,.1853E-4,0
LEMU NGE,2024-149BS,2026-06-19T04:38:08.986848,14.94960440,.00019312,97.6843,245.1123,61.0570,299.0844,0,U,60532,999,10025,.12517222E-3,.1311E-4,0
LEMUR-2-STELLA,2024-149BT,2026-06-19T04:47:38.513184,15.11844897,.00015245,97.6732,252.6636,96.1703,263.9701,0,U,60533,999,10080,.52471034E-3,.8909E-4,0
SATELIOT_2,2024-149BU,2026-06-19T03:59:16.601568,14.96370685,.00021415,97.6833,245.0860,91.5965,268.5501,0,U,60534,999,10026,.16741377E-3,.1838E-4,0
NIGHTJAR,2024-149BV,2026-06-19T04:40:23.827872,14.99024851,.0001022,97.6836,246.8742,80.9462,279.1877,0,U,60535,999,14317,.16360948E-3,.1925E-4,0
LEMUR-2-MARHISYAM,2024-149BW,2026-06-19T05:55:41.725344,15.11296020,.00032455,97.6878,253.1618,114.2659,245.8910,0,U,60536,999,10079,.56962785E-3,.9532E-4,0
SATELIOT_4,2024-149BX,2026-06-18T18:36:38.378016,14.96675362,.00031256,97.6742,244.2292,55.7489,304.4029,0,U,60537,999,10021,.10132477E-3,.1099E-4,0
PICO-02A021,2024-149BY,2026-06-19T03:55:12.842112,15.03270664,.00047963,97.6753,248.9772,22.7959,337.3478,0,U,60538,999,10003,.34313527E-3,.459E-4,0
ICEYE-X43,2024-149BZ,2026-06-19T05:32:03.574752,14.99629405,.00082832,97.6790,247.1670,78.9563,281.2591,0,U,60539,999,10042,.2663793E-3,.3224E-4,0
