
CONNECTA IOT-2
1 60522U 24149BG  26170.21552578  .00003707  00000+0  15599-3 0  9994
2 60522  97.3836 248.3305 0005363 329.2758  30.8165 15.23989268102202

CONNECTA IOT-4
1 60524U 24149BJ  26170.21877021  .00016681  00000+0  39030-3 0  9990
2 60524  97.3795 254.6131 0004062 274.8392  85.2391 15.42203034102643

CUAVA-2
1 60527U 24149BM  26169.97223413  .00009685  00000+0  27712-3 0  9994
2 60527  97.3723 251.4944 0005201 286.2634  73.8038 15.36150155102443

DEIMOS
1 60526U 24149BL  26170.22393658  .00015733  00000+0  34351-3 0  9990
2 60526  97.3780 256.3949 0004072 271.4459  88.6323 15.44283468102769

EAGLEEYE
1 60508U 24149AS  26170.20840398  .00091794  00000+0  72051-3 0  9996
2 60508  97.3718 263.6576 0004504 230.8752 129.2110 15.71245040103257

ERNST
1 60528U 24149BN  26170.18509406  .00011546  00000+0  29852-3 0  9995
2 60528  97.3808 253.9198 0004393 288.3563  71.7205 15.39252469102583

FLOCK 4BE-1
1 60518U 24149BC  26170.19435324  .00015046  00000+0  34707-3 0  9996
2 60518  97.3782 255.2628 0002877 279.0068  81.0854 15.42656347102680

FLOCK 4BE-13
1 60512U 24149AW  26170.23263946  .00012180  00000+0  28828-3 0  9997
2 60512  97.3718 254.6652 0003045 249.7621 110.3299 15.41933646102688

FLOCK 4BE-14
1 60517U 24149BB  26170.18050769  .00013702  00000+0  33366-3 0  9997
2 60517  97.3694 253.9640 0003056 280.1184  79.9718 15.41043574102633

FLOCK 4BE-2
1 60511U 24149AV  26170.25022680  .00051089  00000+0  81957-3 0  9999
2 60511  97.3831 257.6040 0003581 245.7067 114.3812 15.52903535102829

FLOCK 4BE-27
1 60513U 24149AX  26170.21602934  .00007612  00000+0  23034-3 0  9998
2 60513  97.3821 252.0681 0002400 305.1012  55.0005 15.34475244102455

FLOCK 4BE-28
1 60519U 24149BD  26170.20556683  .00015526  00000+0  33129-3 0  9991
2 60519  97.3747 256.0043 0002993 271.4829  88.6077 15.44970196102753

FLOCK 4BE-29
1 60509U 24149AT  26170.18885612  .00014252  00000+0  31237-3 0  9997
2 60509  97.3810 256.0919 0001386 277.9500  82.1591 15.44198222102726

FLOCK 4BE-6
1 60516U 24149BA  26170.19862019  .00013093  00000+0  33418-3 0  9997
2 60516  97.3788 253.8446 0002088 280.7453  79.3558 15.39624229102587

FLOCK 4BE-9
1 60514U 24149AY  26170.23322119  .00013356  00000+0  32745-3 0  9996
2 60514  97.3791 254.5247 0001401 278.5308  81.5780 15.40847332102630

HYPSO-2
1 60531U 24149BR  26170.20356768  .00001853  00000+0  15857-3 0  9993
2 60531  97.6806 246.4351 0000220  60.2275 299.8970 14.98795441100359

ICEYE-X43
1 60539U 24149BZ  26170.23059693  .00003224  00000+0  26638-3 0  9994
2 60539  97.6790 247.1670 0008283  78.9563 281.2591 14.99629405100423

IPERDRONE.0
1 60520U 24149BE  26170.22249713  .00070674  00000+0  66455-3 0  9991
2 60520  97.3772 263.5348 0003796 218.9658 141.1330 15.66905166103232

LEMU NGE
1 60532U 24149BS  26170.19315957  .00001311  00000+0  12517-3 0  9996
2 60532  97.6843 245.1123 0001931  61.0570 299.0844 14.94960440100251

LEMUR-2-MARHISYAM
1 60536U 24149BW  26170.24701071  .00009532  00000+0  56963-3 0  9998
2 60536  97.6878 253.1618 0003245 114.2659 245.8910 15.11296020100798

LEMUR-2-STELLA
1 60533U 24149BT  26170.19975131  .00008909  00000+0  52471-3 0  9996
2 60533  97.6732 252.6636 0001524  96.1703 263.9701 15.11844897100806

NIGHTJAR
1 60535U 24149BV  26170.19472023  .00001925  00000+0  16361-3 0  9999
2 60535  97.6836 246.8742 0001022  80.9462 279.1877 14.99024851143177

ORESAT0.5
1 60525U 24149BK  26170.19061397  .00016550  00000+0  35085-3 0  9990
2 60525  97.3717 256.2216 0004161 263.4157  96.6618 15.45142527102788

PICO-02A021
1 60538U 24149BY  26170.16334308  .00004590  00000+0  34314-3 0  9991
2 60538  97.6753 248.9772 0004796  22.7959 337.3478 15.03270664100033

SATELIOT_2
1 60534U 24149BU  26170.16616437  .00001838  00000+0  16741-3 0  9999
2 60534  97.6833 245.0860 0002141  91.5965 268.5501 14.96370685100269

SATELIOT_4
1 60537U 24149BX  26169.77544419  .00001099  00000+0  10132-3 0  9994
2 60537  97.6742 244.2292 0003125  55.7489 304.4029 14.96675362100217

TANAGER-1
1 60507U 24149AR  26169.77888330  .00003281  00000+0  71919-4 0  9990
2 60507  97.2542 264.0287 0003199 300.0531  60.0400 15.44815637103280

TORO
1 60530U 24149BQ  26170.11205143  .00001075  00000+0  99865-4 0  9990
2 60530  97.6790 244.7440 0001386  80.2197 279.9181 14.96431619100242

TRANSPORTER-11 OBJECT AU
1 60510U 24149AU  26170.20186193  .00011851  00000+0  29639-3 0  9995
2 60510  97.3729 253.9385 0002250 277.2370  82.8620 15.40268795102627

TRANSPORTER-11 OBJECT BF
1 60521U 24149BF  26170.21238859  .00246407  00000+0  99886-3 0  9993
2 60521  97.3762 266.3104 0006323 231.6835 128.3867 15.85616494103406
